STARLINK-30754
1 58124U 23162G   24100.91652213  .00000614  00000+0  60562-4 0  9993
2 58124  43.0028 330.2432 0001501 276.1677  83.8995 15.02534866 21396
STARLINK-2026
1 47644U 21012AA  24101.58335648  .00287195  00000+0  10634-1 0  9997
2 47644  53.0570 322.0335 0001020  71.2258 221.8461 15.25934687174290
STARLINK-31076
1 58736U 24005J   24101.30980408  .00005792  00000+0  44340-3 0  9990
2 58736  43.0016  56.7162 0001186 261.0278  99.0430 15.02545684 15421
STARLINK-30454
1 57915U 23147C   24100.87028875  .00001267  00000+0  10888-3 0  9999
2 57915  43.0022 163.5593 0001205 285.7448  74.3262 15.02536075 31381
STARLINK-30408
1 57824U 23138S   24101.31091303  .00003758  00000+0  29309-3 0  9999
2 57824  43.0058  70.6969 0000964 259.1119 100.9615 15.02543495 33659
STARLINK-31268
1 59245U 24049Q   24101.25001157  .00015176  00000+0  37000-3 0  9995
2 59245  42.9992 164.7319 0001709 301.3206  68.1839 15.40686755  5147
STARLINK-3557
1 51802U 22017AL  24101.13678491  .00002304  00000+0  16283-3 0  9996
2 51802  53.2163 245.0368 0001240  84.6144 275.4990 15.08832599118466
STARLINK-6292
1 56775U 23078J   24101.45277903 -.00000342  00000+0 -20865-4 0  9990
2 56775  70.0010 265.0989 0002954 270.1433  89.9387 14.98333591 49338
STARLINK-6355
1 57356U 23099AE  24101.27550726  .00000365  00000+0  42093-4 0  9996
2 57356  43.0040  71.2157 0001209 270.3067  89.7637 15.02536231 41844
STARLINK-30560
1 58038U 23156L   24101.20422121  .00007348  00000+0  27774-3 0  9994
2 58038  53.1107  89.3301 0001781  96.3178 263.8024 15.28013221 29021
STARLINK-3809
1 52851U 22062X   24100.80419268  .00001729  00000+0  12670-3 0  9995
2 52851  53.2126 281.5407 0001163  89.5746 270.5379 15.08841169100411
STARLINK-5587
1 57245U 23094AD  24100.73067176  .00003353  00000+0  26309-3 0  9991
2 57245  43.0032 215.6778 0001312 269.3395  90.7297 15.02544789 42125
STARLINK-31018
1 58635U 23203T   24100.93734128 -.00001932  00000+0 -64006-4 0  9997
2 58635  42.9998  49.2057 0001051 242.5060 117.5685 15.25921133 17972
STARLINK-30330
1 57636U 23122E   24100.84091915  .00001012  00000+0  89959-4 0  9998
2 57636  43.0034 292.2580 0001420 271.7243  88.3436 15.02539228 37058
STARLINK-3507
1 51753U 22016AR  24101.53517507  .00002597  00000+0  18119-3 0  9998
2 51753  53.2183 203.2683 0001517  89.3930 270.7236 15.08839491119371
STARLINK-3938
1 52566U 22051AK  24101.16942124 -.00000642  00000+0 -22219-4 0  9994
2 52566  53.2192  29.8984 0001248 100.7169 259.3964 15.08844246105991
STARLINK-30039
1 57468U 23107M   24101.53141312  .00007464  00000+0  56695-3 0  9995
2 57468  43.0034 172.4412 0001291 259.8572 100.2125 15.02538434 39972
STARLINK-30250
1 57527U 23115G   24101.53419991  .00001013  00000+0  90030-4 0  9997
2 57527  43.0011 198.3199 0001033 276.8964  83.1760 15.02546669 38185
STARLINK-31514
1 59187U 24045K   24101.16271784  .00007730  00000+0  19207-3 0  9997
2 59187  42.9994 112.6891 0001547 242.9769 117.0930 15.40709390  5928
STARLINK-2103
1 47383U 21005AL  24100.87532101  .00000059  00000+0  22840-4 0  9990
2 47383  53.0563 278.9976 0001722  98.9271 261.1913 15.06397530178272
STARLINK-1028
1 44733U 19074W   24101.23787966  .00001146  00000+0  95823-4 0  9990
2 44733  53.0551  82.0886 0001394  90.6716 269.4433 15.06403962243646
STARLINK-3451
1 51749U 22016AM  24101.56643936 -.00000290  00000+0 -81274-7 0  9998
2 51749  53.2170 213.3030 0002333  85.9785 274.1474 15.08840383119270
STARLINK-1998
1 47593U 21009AX  24101.24574812 -.00004339  00000+0 -27275-3 0  9997
2 47593  53.0517 297.0549 0000749 125.7363 234.3695 15.06377968175854
STARLINK-30275
1 57667U 23124E   24100.70246170  .00018388  00000+0  67457-3 0  9996
2 57667  53.0990 216.0811 0001093  58.1210 301.9895 15.28032756 36517
STARLINK-4770
1 53849U 22114AH  24100.39293839  .00002212  00000+0  15704-3 0  9998
2 53849  53.2146 193.2401 0001720  78.9078 281.2108 15.08842952 87406
STARLINK-4476
1 53419U 22097AH  24101.18231818 -.00000193  00000+0  59944-5 0  9991
2 53419  53.2198   9.8450 0001898  85.1696 274.9513 15.08836570 92712
STARLINK-2630
1 48381U 21038AE  24101.36090274  .00000635  00000+0  61497-4 0  9991
2 48381  53.0532 246.5355 0001250  85.0629 275.0503 15.06400424162504
STARLINK-31254
1 58892U 24020S   24101.35619108  .00000877  00000+0  44382-4 0  9997
2 58892  53.1594 326.0820 0003105  83.4732 276.6621 15.28015346 12310
STARLINK-4336
1 53051U 22077J   24101.45181901  .00000747  00000+0  62763-4 0  9994
2 53051  97.6570 283.2501 0001933  85.5445 274.6000 15.01262646 96735
STARLINK-4024
1 52599U 22052B   24101.37875399  .00000447  00000+0  46222-4 0  9994
2 52599  53.2182 174.0664 0001870  91.2180 268.9027 15.08836000105807
STARLINK-5135
1 54005U 22125AT  24101.30187597 -.00000370  00000+0 -51427-5 0  9999
2 54005  53.2159 109.0254 0001381  91.8538 268.2612 15.08839953 84087
STARLINK-4458
1 53668U 22105W   24101.16329721 -.00000304  00000+0 -19064-4 0  9999
2 53668  97.6561 342.9340 0003484  69.1740 290.9857 15.01263370 88717
STARLINK-1617
1 46350U 20062AB  24101.39895626  .00053941  00000+0  42823-3 0  9997
2 46350  53.0530 254.3869 0001134 104.5522 255.5621 15.70751600199480
STARLINK-30328
1 57638U 23122G   24101.18124268  .00002679  00000+0  21325-3 0  9998
2 57638  43.0032 276.8602 0001176 269.7362  90.3346 15.02544362 37258
STARLINK-5474
1 55665U 23021AP  24101.50122105  .00003388  00000+0  29178-3 0  9990
2 55665  69.9984 124.8008 0002785 266.1569  93.9272 14.98309424 64404
STARLINK-2641
1 48369U 21038S   24100.40626269  .00003453  00000+0  25067-3 0  9993
2 48369  53.0557 250.8188 0001164  83.8316 276.2806 15.06385415161760
STARLINK-5163
1 54054U 22136D   24101.39669156  .00001030  00000+0  82803-4 0  9993
2 54054  53.2174 239.0038 0002008  96.5051 263.6169 15.08839657 81906
STARLINK-30573
1 58058U 23158H   24101.42395121  .00003987  00000+0  31002-3 0  9995
2 58058  43.0039 224.5419 0001652 281.4364  78.6293 15.02543283 28497
STARLINK-5750
1 55594U 23020AB  24101.00675414  .00001915  00000+0  15683-3 0  9991
2 55594  43.0039 200.7125 0001575 271.5745  88.4917 15.02533830 63821
STARLINK-3674
1 51975U 22025V   24100.80296940  .00001339  00000+0  10873-3 0  9990
2 51975  53.0534 284.2613 0001008  75.5419 284.5682 15.06400638115640
STARLINK-5381
1 54828U 22177J   24100.92426692  .00002034  00000+0  16561-3 0  9993
2 54828  43.0052 330.1619 0001308 265.0554  95.0139 15.02541313 71847
STARLINK-31405
1 59248U 24049T   24100.46334060  .00002873  00000+0  57985-4 0  9997
2 59248  43.0000 169.1681 0001137 260.0867  99.9865 15.48911977  5036
STARLINK-30119
1 56823U 23079A   24101.54527169  .00002193  00000+0  17736-3 0  9993
2 56823  43.0053 301.0381 0001616 269.6554  90.4103 15.02540430 47538
STARLINK-31214
1 58871U 24019U   24101.35279130  .00005977  00000+0  23823-3 0  9991
2 58871  42.9988 226.5147 0001439 278.4313  81.6375 15.25896808 12143
STARLINK-1533
1 46069U 20055AU  24101.10243039  .00003268  00000+0  23813-3 0  9995
2 46069  53.0552 352.6951 0001496  82.7812 277.3347 15.06411019203484
STARLINK-3457
1 51754U 22016AS  24101.56363217 -.00002841  00000+0 -16043-3 0  9997
2 51754  53.2216 202.8922 0001281  96.5967 263.5171 15.08849335119431
STARLINK-2339
1 47881U 21021X   24100.92137010  .00015316  00000+0  10441-2 0  9991
2 47881  53.0542 178.5089 0001279 108.6315 251.4813 15.06426831170255
STARLINK-3739
1 52266U 22041F   24100.47069182  .00001153  00000+0  90525-4 0  9998
2 52266  53.2189   8.0383 0001304  89.5096 270.6045 15.08841295110030
STARLINK-5589
1 57334U 23099G   24101.13341503  .00000147  00000+0  25949-4 0  9997
2 57334  43.0056  84.9000 0001160 272.9309  87.1400 15.02541467 41665
STARLINK-30386
1 57816U 23138J   24101.33089398  .00000897  00000+0  81474-4 0  9996
2 57816  43.0044  70.8487 0001178 261.9037  98.1672 15.02537557 33383
STARLINK-5975
1 57372U 23099AW  24101.29869127  .00000438  00000+0  47458-4 0  9995
2 57372  43.0040  70.5156 0001124 274.8331  85.2383 15.02542319 41744
STARLINK-3779
1 52281U 22041W   24101.43580816  .00000558  00000+0  53125-4 0  9997
2 52281  53.2204   3.7088 0001548  93.8233 266.2936 15.08844785110172
STARLINK-5344
1 55494U 23015AX  24100.91535952  .00000885  00000+0  80596-4 0  9996
2 55494  43.0028 175.6240 0001245 272.2386  87.8314 15.02537841 65494
STARLINK-30814
1 58165U 23166R   24101.58335648 -.00140061  00000+0 -51218-2 0  9995
2 58165  53.1183 220.5222 0001301  58.5055 228.3778 15.28133962 26315
STARLINK-31269
1 58844U 24017U   24100.61963131  .00000392  00000+0  46729-4 0  9995
2 58844  53.1637 224.9513 0001342  72.2301 287.8835 15.04924935 12845
STARLINK-4352
1 53047U 22077E   24101.43909596 -.00004451  00000+0 -34190-3 0  9995
2 53047  97.6543 283.2868 0003044  45.9151 314.2323 15.01284399 96744
STARLINK-3332
1 50825U 22001Y   24101.31156859  .00000486  00000+0  48621-4 0  9993
2 50825  53.2191  64.2579 0001429  99.0542 261.0611 15.08845387126242
STARLINK-30617
1 58104U 23161H   24101.20946642  .00005743  00000+0  21985-3 0  9998
2 58104  53.0886 167.6299 0001252 106.6209 253.4928 15.28016964 27389
STARLINK-5411
1 54865U 22177AX  24100.93118254  .00000901  00000+0  81760-4 0  9992
2 54865  43.0050 317.2002 0001279 265.5652  94.5044 15.02537382 71995
STARLINK-3150
1 49452U 21104AW  24101.43305038  .00002950  00000+0  20326-3 0  9997
2 49452  53.2152 113.7558 0001676  92.3259 267.7925 15.08858410134448
STARLINK-5825
1 55783U 23028AU  24101.45996090  .00000465  00000+0  46745-4 0  9997
2 55783  70.0000 165.1242 0003040 271.4878  88.5933 14.98335712 62436
STARLINK-4672
1 53592U 22104E   24101.52460417 -.00000185  00000+0  64830-5 0  9990
2 53592  53.2160 138.4430 0001453  94.5843 265.5315 15.08839122 89522
STARLINK-3743
1 52118U 22029AG  24101.36768892  .00001086  00000+0  86280-4 0  9991
2 52118  53.2190 334.0133 0001326  85.1751 274.9393 15.08849024115369
STARLINK-5309
1 55310U 23010AT  24101.33661387  .00003241  00000+0  27915-3 0  9991
2 55310  69.9988 325.3368 0002885 270.5723  89.5106 14.98351642 68842
